[
    {
        "Altitude(m)": 571551.2573904394,
        "Argument of Periapsis(deg)": 0.0,
        "Eccentricity": 0.0,
        "Inclination(deg)": 53.0,
        "Latitude(deg)": -52.38813714682095,
        "Longitude(deg)": -173.37603479182442,
        "Mean Anomaly(deg)": 261.8182,
        "RAAN(deg)": 30.0,
        "Satellite Name": "Starlink Shell 1 148",
        "Satellite Number": 148,
        "Semi-Major Axis(m)": 6931778.249405717,
        "Time(s)": 0
    },
    {
        "Altitude(m)": 571594.4005505327,
        "Argument of Periapsis(deg)": 0.00034857847951123687,
        "Eccentricity": 0.0,
        "Inclination(deg)": 53.0,
        "Latitude(deg)": -52.49958234786614,
        "Longitude(deg)": -172.41163844145765,
        "Mean Anomaly(deg)": 262.4450312035567,
        "RAAN(deg)": 29.999481229922527,
        "Satellite Name": "Starlink Shell 1 148",
        "Satellite Number": 148,
        "Semi-Major Axis(m)": 6931778.249405717,
        "Time(s)": 10
    },
    {
        "Altitude(m)": 571634.1627733816,
        "Argument of Periapsis(deg)": 0.0006971569590224737,
        "Eccentricity": 0.0,
        "Inclination(deg)": 53.0,
        "Latitude(deg)": -52.602440163488794,
        "Longitude(deg)": -171.44234919083058,
        "Mean Anomaly(deg)": 263.07186240711343,
        "RAAN(deg)": 29.998962459845053,
        "Satellite Name": "Starlink Shell 1 148",
        "Satellite Number": 148,
        "Semi-Major Axis(m)": 6931778.249405717,
        "Time(s)": 20
    },
    {
        "Altitude(m)": 571670.5281760875,
        "Argument of Periapsis(deg)": 0.0010457354385337105,
        "Eccentricity": 0.0,
        "Inclination(deg)": 53.0,
        "Latitude(deg)": -52.696638987919194,
        "Longitude(deg)": -170.46852299625394,
        "Mean Anomaly(deg)": 263.69869361067015,
        "RAAN(deg)": 29.99844368976758,
        "Satellite Name": "Starlink Shell 1 148",
        "Satellite Number": 148,
        "Semi-Major Axis(m)": 6931778.249405717,
        "Time(s)": 30
    },
    {
        "Altitude(m)": 571703.4822289638,
        "Argument of Periapsis(deg)": 0.0013943139180449475,
        "Eccentricity": 0.0,
        "Inclination(deg)": 53.0,
        "Latitude(deg)": -52.78211255397473,
        "Longitude(deg)": -169.4905277391514,
        "Mean Anomaly(deg)": 264.3255248142269,
        "RAAN(deg)": 29.99792491969011,
        "Satellite Name": "Starlink Shell 1 148",
        "Satellite Number": 148,
        "Semi-Major Axis(m)": 6931778.249405717,
        "Time(s)": 40
    },
    {
        "Altitude(m)": 571733.0117617891,
        "Argument of Periapsis(deg)": 0.0017428923975561844,
        "Eccentricity": 0.0,
        "Inclination(deg)": 53.0,
        "Latitude(deg)": -52.85880015484645,
        "Longitude(deg)": -168.50874340120546,
        "Mean Anomaly(deg)": 264.9523560177836,
        "RAAN(deg)": 29.99740614961263,
        "Satellite Name": "Starlink Shell 1 148",
        "Satellite Number": 148,
        "Semi-Major Axis(m)": 6931778.249405717,
        "Time(s)": 50
    },
    {
        "Altitude(m)": 571759.1049695484,
        "Argument of Periapsis(deg)": 0.002091470877067421,
        "Eccentricity": 0.0,
        "Inclination(deg)": 53.0,
        "Latitude(deg)": -52.92664685066385,
        "Longitude(deg)": -167.52356065014249,
        "Mean Anomaly(deg)": 265.5791872213403,
        "RAAN(deg)": 29.99688737953516,
        "Satellite Name": "Starlink Shell 1 148",
        "Satellite Number": 148,
        "Semi-Major Axis(m)": 6931778.249405717,
        "Time(s)": 60
    },
    {
        "Altitude(m)": 571781.7514175198,
        "Argument of Periapsis(deg)": 0.0024400493565786582,
        "Eccentricity": 0.0,
        "Inclination(deg)": 53.0,
        "Latitude(deg)": -52.98560365823882,
        "Longitude(deg)": -166.53537935353762,
        "Mean Anomaly(deg)": 266.206018424897,
        "RAAN(deg)": 29.99636860945769,
        "Satellite Name": "Starlink Shell 1 148",
        "Satellite Number": 148,
        "Semi-Major Axis(m)": 6931778.249405717,
        "Time(s)": 70
    },
    {
        "Altitude(m)": 571800.9420457876,
        "Argument of Periapsis(deg)": 0.002788627836089895,
        "Eccentricity": 0.0,
        "Inclination(deg)": 53.0,
        "Latitude(deg)": -53.03562772248789,
        "Longitude(deg)": -165.54460853889228,
        "Mean Anomaly(deg)": 266.83284962845374,
        "RAAN(deg)": 29.995849839380213,
        "Satellite Name": "Starlink Shell 1 148",
        "Satellite Number": 148,
        "Semi-Major Axis(m)": 6931778.249405717,
        "Time(s)": 80
    },
    {
        "Altitude(m)": 571816.6691731806,
        "Argument of Periapsis(deg)": 0.0031372063156011316,
        "Eccentricity": 0.0,
        "Inclination(deg)": 53.0,
        "Latitude(deg)": -53.07668246815943,
        "Longitude(deg)": -164.55166478045209,
        "Mean Anomaly(deg)": 267.4596808320104,
        "RAAN(deg)": 29.995331069302743,
        "Satellite Name": "Starlink Shell 1 148",
        "Satellite Number": 148,
        "Semi-Major Axis(m)": 6931778.249405717,
        "Time(s)": 90
    },
    {
        "Altitude(m)": 571828.9265005701,
        "Argument of Periapsis(deg)": 0.0034857847951123688,
        "Eccentricity": 0.0,
        "Inclination(deg)": 53.0,
        "Latitude(deg)": -53.10873773062139,
        "Longitude(deg)": -163.55697053262196,
        "Mean Anomaly(deg)": 268.0865120355672,
        "RAAN(deg)": 29.994812299225266,
        "Satellite Name": "Starlink Shell 1 148",
        "Satellite Number": 148,
        "Semi-Major Axis(m)": 6931778.249405717,
        "Time(s)": 100
    },
    {
        "Altitude(m)": 571837.7091136269,
        "Argument of Periapsis(deg)": 0.003834363274623606,
        "Eccentricity": 0.0,
        "Inclination(deg)": 53.0,
        "Latitude(deg)": -53.13176986462189,
        "Longitude(deg)": -162.5609539305389,
        "Mean Anomaly(deg)": 268.71334323912384,
        "RAAN(deg)": 29.994293529147797,
        "Satellite Name": "Starlink Shell 1 148",
        "Satellite Number": 148,
        "Semi-Major Axis(m)": 6931778.249405717,
        "Time(s)": 110
    },
    {
        "Altitude(m)": 571843.0134849243,
        "Argument of Periapsis(deg)": 0.004182941754134842,
        "Eccentricity": 0.0,
        "Inclination(deg)": 53.0,
        "Latitude(deg)": -53.145761830115596,
        "Longitude(deg)": -161.5640470403368,
        "Mean Anomaly(deg)": 269.3401744426806,
        "RAAN(deg)": 29.993774759070327,
        "Satellite Name": "Starlink Shell 1 148",
        "Satellite Number": 148,
        "Semi-Major Axis(m)": 6931778.249405717,
        "Time(s)": 120
    },
    {
        "Altitude(m)": 571844.8374754785,
        "Argument of Periapsis(deg)": 0.004531520233646079,
        "Eccentricity": 0.0,
        "Inclination(deg)": 53.0,
        "Latitude(deg)": -53.150703254425366,
        "Longitude(deg)": -160.56668408077286,
        "Mean Anomaly(deg)": 269.9670056462373,
        "RAAN(deg)": 29.99325598899285,
        "Satellite Name": "Starlink Shell 1 148",
        "Satellite Number": 148,
        "Semi-Major Axis(m)": 6931778.249405717,
        "Time(s)": 130
    },
    {
        "Altitude(m)": 571843.1803356748,
        "Argument of Periapsis(deg)": 0.0048800987131573164,
        "Eccentricity": 0.0,
        "Inclination(deg)": 53.0,
        "Latitude(deg)": -53.14659047020674,
        "Longitude(deg)": -159.5693011382604,
        "Mean Anomaly(deg)": 270.593836849794,
        "RAAN(deg)": 29.99273721891538,
        "Satellite Name": "Starlink Shell 1 148",
        "Satellite Number": 148,
        "Semi-Major Axis(m)": 6931778.249405717,
        "Time(s)": 140
    },
    {
        "Altitude(m)": 571838.0427055894,
        "Argument of Periapsis(deg)": 0.005228677192668553,
        "Eccentricity": 0.0,
        "Inclination(deg)": 53.0,
        "Latitude(deg)": -53.133426528894674,
        "Longitude(deg)": -158.57233435900983,
        "Mean Anomaly(deg)": 271.2206680533508,
        "RAAN(deg)": 29.99221844883791,
        "Satellite Name": "Starlink Shell 1 148",
        "Satellite Number": 148,
        "Semi-Major Axis(m)": 6931778.249405717,
        "Time(s)": 150
    },
    {
        "Altitude(m)": 571829.4266147228,
        "Argument of Periapsis(deg)": 0.00557725567217979,
        "Eccentricity": 0.0,
        "Inclination(deg)": 53.0,
        "Latitude(deg)": -53.11122118951484,
        "Longitude(deg)": -157.5762181407285,
        "Mean Anomaly(deg)": 271.84749925690744,
        "RAAN(deg)": 29.99169967876043,
        "Satellite Name": "Starlink Shell 1 148",
        "Satellite Number": 148,
        "Semi-Major Axis(m)": 6931778.249405717,
        "Time(s)": 160
    },
    {
        "Altitude(m)": 571817.3354811148,
        "Argument of Periapsis(deg)": 0.0059258341516910265,
        "Eccentricity": 0.0,
        "Inclination(deg)": 53.0,
        "Latitude(deg)": -53.07999088295258,
        "Longitude(deg)": -156.58138484634054,
        "Mean Anomaly(deg)": 272.47433046046416,
        "RAAN(deg)": 29.99118090868296,
        "Satellite Name": "Starlink Shell 1 148",
        "Satellite Number": 148,
        "Semi-Major Axis(m)": 6931778.249405717,
        "Time(s)": 170
    },
    {
        "Altitude(m)": 571801.7741098882,
        "Argument of Periapsis(deg)": 0.006274412631202263,
        "Eccentricity": 0.0,
        "Inclination(deg)": 53.0,
        "Latitude(deg)": -53.03975865199128,
        "Longitude(deg)": -155.58826302344295,
        "Mean Anomaly(deg)": 273.1011616640209,
        "RAAN(deg)": 29.990662138605487,
        "Satellite Name": "Starlink Shell 1 148",
        "Satellite Number": 148,
        "Semi-Major Axis(m)": 6931778.249405717,
        "Time(s)": 180
    }
]